ONEWEB-0153             
1 48044U 21025C   24098.31082669 -.00000200  00000+0 -58354-3 0  9999
2 48044  87.8899 119.6505 0002027  95.5769 264.5591 13.13471519148415
ONEWEB-0154             
1 48045U 21025D   24098.30765705 -.00000136  00000+0 -40851-3 0  9999
2 48045  87.8898 119.6647 0001953  93.8969 266.2383 13.13470813148371
ONEWEB-0116             
1 48046U 21025E   24098.34893677  .00000441  00000+0  11735-2 0  9999
2 48046  87.8901 119.6234 0001848  88.2043 271.9297 13.13470128148526
ONEWEB-0150             
1 48047U 21025F   24098.32353024 -.00000192  00000+0 -56158-3 0  9999
2 48047  87.8893 119.6515 0002138  93.4829 266.6545 13.13470866148416
ONEWEB-0107             
1 48048U 21025G   24098.47748208 -.00000227  00000+0 -65699-3 0  9997
2 48048  87.8895 119.6189 0002319  96.6089 263.5304 13.13470580148412
ONEWEB-0113             
1 48050U 21025J   24098.49494241  .00000181  00000+0  46014-3 0  9994
2 48050  87.8898 119.6098 0001865  89.3377 270.7966 13.13469915148471
ONEWEB-0112             
1 48051U 21025K   24098.48223813 -.00000122  00000+0 -36822-3 0  9992
2 48051  87.8894 119.6158 0002058  90.9892 269.1472 13.13470982148481
